NORAD_CAT_ID,OBJECT_NAME,OBJECT_TYPE,EPOCH,MEAN_MOTION,ECCENTRICITY,INCLINATION,RA_OF_ASC_NODE,ARG_OF_PERICENTER,MEAN_ANOMALY,BSTAR,MEAN_MOTION_DOT,MEAN_MOTION_DDOT,TLE_LINE0,TLE_LINE1,TLE_LINE2,SEMIMAJOR_AXIS,PERIOD,APOGEE,PERIGEE,DECAYED
56484.0,STARLINK-6221,PAYLOAD,2024-02-20 11:02:22,14.98336049,0.0002972,69.9996,210.9301,270.4837,89.5982,-3.4918e-05,-5.1e-06,0.0,0 STARLINK-6221,1 56484U 23064AN  24051.45997721 -.00000510  00000-0 -34918-4 0  9995,2 56484  69.9996 210.9301 0002972 270.4837  89.5982 14.98336049 44022,6950.174,96.107,574.105,569.974,0.0
56484.0,STARLINK-6221,PAYLOAD,2024-02-20 14:14:38,14.9833624,0.0002973,69.9997,210.5934,270.481,89.6009,-3.0942e-05,-4.62e-06,0.0,0 STARLINK-6221,1 56484U 23064AN  24051.59349642 -.00000462  00000-0 -30942-4 0  9992,2 56484  69.9997 210.5934 0002973 270.4810  89.6009 14.98336240 43688,6950.174,96.107,574.105,569.972,0.0
56484.0,STARLINK-6221,PAYLOAD,2024-02-20 20:39:09,14.98340274,0.0002942,69.9997,209.9201,270.3831,89.6991,-3.6772e-06,-1.37e-06,0.0,0 STARLINK-6221,1 56484U 23064AN  24051.86053178 -.00000137  00000-0 -36772-5 0  9995,2 56484  69.9997 209.9201 0002942 270.3831  89.6991 14.98340274 43722,6950.161,96.106,574.071,569.981,0.0
56484.0,STARLINK-6221,PAYLOAD,2024-02-21 11:04:23,14.98325481,0.0002873,70.0,208.4053,271.5304,88.5526,7.8688e-06,1e-08,0.0,0 STARLINK-6221,1 56484U 23064AN  24052.46137969  .00000001  00000-0  78688-5 0  9993,2 56484  70.0000 208.4053 0002873 271.5304  88.5526 14.98325481 44175,6950.207,96.107,574.069,570.075,0.0
56484.0,STARLINK-6221,PAYLOAD,2024-02-21 14:16:39,14.98324968,0.0002878,70.0,208.0686,271.4815,88.6014,1.4251e-06,-7.6e-07,0.0,0 STARLINK-6221,1 56484U 23064AN  24052.59490043 -.00000076  00000-0  14251-5 0  9991,2 56484  70.0000 208.0686 0002878 271.4815  88.6014 14.98324968 43838,6950.208,96.107,574.074,570.073,0.0
56484.0,STARLINK-6221,PAYLOAD,2024-02-21 20:41:11,14.98327744,0.000287,70.0001,207.3954,271.5761,88.5069,2.6532e-05,2.24e-06,0.0,0 STARLINK-6221,1 56484U 23064AN  24052.86193849  .00000224  00000-0  26532-4 0  9993,2 56484  70.0001 207.3954 0002870 271.5761  88.5069 14.98327744 43870,6950.2,96.107,574.06,570.07,0.0
56484.0,STARLINK-6221,PAYLOAD,2024-02-22 11:06:23,14.98333382,0.0002839,70.0001,205.8806,271.169,88.9144,-1.5236e-05,-2.75e-06,0.0,0 STARLINK-6221,1 56484U 23064AN  24053.46277628 -.00000275  00000-0 -15236-4 0  9995,2 56484  70.0001 205.8806 0002839 271.1690  88.9144 14.98333382 44325,6950.182,96.107,574.021,570.074,0.0
56484.0,STARLINK-6221,PAYLOAD,2024-02-22 14:18:40,14.98332486,0.0002856,70.0001,205.544,270.9155,89.1677,-2.3207e-05,-3.7e-06,0.0,0 STARLINK-6221,1 56484U 23064AN  24053.59629675 -.00000370  00000-0 -23207-4 0  9995,2 56484  70.0001 205.5440 0002856 270.9155  89.1677 14.98332486 43987,6950.185,96.107,574.035,570.065,0.0
56484.0,STARLINK-6221,PAYLOAD,2024-02-22 19:07:04,14.98333627,0.000285,70.0001,205.0395,268.8523,91.231,-1.4578e-05,-2.67e-06,0.0,0 STARLINK-6221,1 56484U 23064AN  24053.79657528 -.00000267  00000-0 -14578-4 0  9991,2 56484  70.0001 205.0395 0002850 268.8523  91.2310 14.98333627 44011,6950.182,96.107,574.027,570.066,0.0
56484.0,STARLINK-6221,PAYLOAD,2024-02-23 11:08:24,14.9832856,0.0002901,70.0001,203.356,268.673,91.4097,1.9554e-05,1.4e-06,0.0,0 STARLINK-6221,1 56484U 23064AN  24054.46417678  .00000140  00000-0  19554-4 0  9993,2 56484  70.0001 203.3560 0002901 268.6730  91.4097 14.98328560 44475,6950.197,96.107,574.079,570.046,0.0
56484.0,STARLINK-6221,PAYLOAD,2024-02-23 14:20:41,14.98327921,0.0002921,70.0,203.0195,268.9608,91.1217,1.0225e-05,2.9e-07,0.0,0 STARLINK-6221,1 56484U 23064AN  24054.59769758  .00000029  00000-0  10225-4 0  9998,2 56484  70.0000 203.0195 0002921 268.9608  91.1217 14.98327921 44138,6950.199,96.107,574.094,570.034,0.0
56484.0,STARLINK-6221,PAYLOAD,2024-02-23 19:09:05,14.98329173,0.0002918,70.0001,202.5146,268.9929,91.0896,2.3246e-05,1.84e-06,0.0,0 STARLINK-6221,1 56484U 23064AN  24054.79797660  .00000184  00000-0  23246-4 0  9992,2 56484  70.0001 202.5146 0002918 268.9929  91.0896 14.98329173 44167,6950.195,96.107,574.089,570.032,0.0
56484.0,STARLINK-6221,PAYLOAD,2024-02-24 11:10:25,14.98328985,0.0002882,70.0003,200.8317,268.8038,91.2791,-1.3755e-05,-2.57e-06,0.0,0 STARLINK-6221,1 56484U 23064AN  24055.46557811 -.00000257  00000-0 -13755-4 0  9996,2 56484  70.0003 200.8317 0002882 268.8038  91.2791 14.98328985 44627,6950.196,96.107,574.064,570.058,0.0
56484.0,STARLINK-6221,PAYLOAD,2024-02-24 14:22:42,14.98329149,0.0002883,70.0003,200.4951,268.7685,91.3144,-1.1997e-05,-2.36e-06,0.0,0 STARLINK-6221,1 56484U 23064AN  24055.59909800 -.00000236  00000-0 -11997-4 0  9992,2 56484  70.0003 200.4951 0002883 268.7685  91.3144 14.98329149 44283,6950.196,96.107,574.064,570.057,0.0
56484.0,STARLINK-6221,PAYLOAD,2024-02-24 15:58:50,14.98329897,0.0002956,70.0002,200.3271,271.0458,89.0362,-1.7114e-05,-2.97e-06,0.0,0 STARLINK-6221,1 56484U 23064AN  24055.66585780 -.00000297  00000-0 -17114-4 0  9991,2 56484  70.0002 200.3271 0002956 271.0458  89.0362 14.98329897 44299,6950.193,96.107,574.113,570.004,0.0
56484.0,STARLINK-6221,PAYLOAD,2024-02-25 11:12:26,14.98330636,0.0002949,70.0005,198.3072,271.1858,88.8963,2.7513e-05,2.35e-06,0.0,0 STARLINK-6221,1 56484U 23064AN  24056.46697567  .00000235  00000-0  27513-4 0  9991,2 56484  70.0005 198.3072 0002949 271.1858  88.8963 14.98330636 44774,6950.191,96.107,574.106,570.006,0.0
56484.0,STARLINK-6221,PAYLOAD,2024-02-25 14:24:42,14.98330783,0.0002937,70.0005,197.9705,271.0265,89.0557,3.0513e-05,2.71e-06,0.0,0 STARLINK-6221,1 56484U 23064AN  24056.60049541  .00000271  00000-0  30513-4 0  9994,2 56484  70.0005 197.9705 0002937 271.0265  89.0557 14.98330783 44438,6950.19,96.107,574.097,570.014,0.0
56484.0,STARLINK-6221,PAYLOAD,2024-02-25 19:13:06,14.98336291,0.0002958,70.0003,197.4653,270.4389,89.6431,8.409e-05,9.11e-06,0.0,0 STARLINK-6221,1 56484U 23064AN  24056.80076978  .00000911  00000-0  84090-4 0  9990,2 56484  70.0003 197.4653 0002958 270.4389  89.6431 14.98336291 44466,6950.173,96.107,574.094,569.983,0.0
56484.0,STARLINK-6221,PAYLOAD,2024-02-26 11:14:28,14.98323781,0.0002624,70.0006,195.7813,262.3004,97.7857,-4.9369e-05,-6.82e-06,0.0,0 STARLINK-6221,1 56484U 23064AN  24057.46838235 -.00000682  00000-0 -49369-4 0  9992,2 56484  70.0006 195.7813 0002624 262.3004  97.7857 14.98323781 44925,6950.212,96.107,573.901,570.253,0.0
56484.0,STARLINK-6221,PAYLOAD,2024-02-26 14:26:44,14.98323077,0.0002942,70.0001,195.4451,269.6839,90.3983,-5.7089e-05,-7.74e-06,0.0,0 STARLINK-6221,1 56484U 23064AN  24057.60190353 -.00000774  00000-0 -57089-4 0  9990,2 56484  70.0001 195.4451 0002942 269.6839  90.3983 14.98323077 44583,6950.214,96.107,574.124,570.035,0.0
56484.0,STARLINK-6221,PAYLOAD,2024-02-26 19:15:08,14.98324072,0.0002903,70.0003,194.9403,269.8026,90.2801,-4.0446e-05,-5.75e-06,0.0,0 STARLINK-6221,1 56484U 23064AN  24057.80218331 -.00000575  00000-0 -40446-4 0  9997,2 56484  70.0003 194.9403 0002903 269.8026  90.2801 14.98324072 44611,6950.211,96.107,574.094,570.059,0.0
56484.0,STARLINK-6221,PAYLOAD,2024-02-27 11:16:28,14.98335667,0.0002991,70.0002,193.2577,270.2769,89.8048,-2.0597e-06,-1.18e-06,0.0,0 STARLINK-6221,1 56484U 23064AN  24058.46977534 -.00000118  00000-0 -20597-5 0  9996,2 56484  70.0002 193.2577 0002991 270.2769  89.8048 14.98335667 45071,6950.175,96.107,574.119,569.962,0.0
56484.0,STARLINK-6221,PAYLOAD,2024-02-27 14:28:44,14.98335998,0.0002986,70.0001,192.9205,268.6526,91.4291,1.5584e-06,-7.4e-07,0.0,0 STARLINK-6221,1 56484U 23064AN  24058.60329445 -.00000074  00000-0  15584-5 0  9994,2 56484  70.0001 192.9205 0002986 268.6526  91.4291 14.98335998 44738,6950.174,96.107,574.115,569.964,0.0
56484.0,STARLINK-6221,PAYLOAD,2024-02-27 19:17:08,14.98339367,0.0002993,70.0001,192.4154,268.6874,91.3942,4.2827e-05,4.18e-06,0.0,0 STARLINK-6221,1 56484U 23064AN  24058.80357029  .00000418  00000-0  42827-4 0  9995,2 56484  70.0001 192.4154 0002993 268.6874  91.3942 14.98339367 44769,6950.164,96.106,574.109,569.949,0.0
56484.0,STARLINK-6221,PAYLOAD,2024-02-28 12:54:38,14.98323925,0.0002825,70.0007,190.5638,268.5698,91.5137,4.4121e-05,4.33e-06,0.0,0 STARLINK-6221,1 56484U 23064AN  24059.53794033  .00000433  00000-0  44121-4 0  9992,2 56484  70.0007 190.5638 0002825 268.5698  91.5137 14.98323925 45232,6950.212,96.107,574.04,570.113,0.0
56484.0,STARLINK-6221,PAYLOAD,2024-02-28 14:30:45,14.9832615,0.0002835,70.0007,190.3955,267.6041,92.4794,6.0191e-05,6.25e-06,0.0,0 STARLINK-6221,1 56484U 23064AN  24059.60469855  .00000625  00000-0  60191-4 0  9999,2 56484  70.0007 190.3955 0002835 267.6041  92.4794 14.98326150 44887,6950.205,96.107,574.04,570.099,0.0
56484.0,STARLINK-6221,PAYLOAD,2024-02-28 17:43:02,14.98324069,0.0002783,70.0008,190.0593,264.0641,96.0201,5.0155e-05,5.05e-06,0.0,0 STARLINK-6221,1 56484U 23064AN  24059.73822045  .00000505  00000-0  50155-4 0  9993,2 56484  70.0008 190.0593 0002783 264.0641  96.0201 14.98324069 44905,6950.211,96.107,574.01,570.142,0.0
56484.0,STARLINK-6221,PAYLOAD,2024-02-29 11:20:30,14.98336013,0.0002799,70.0009,188.208,263.8258,96.2582,-1.6055e-05,-2.85e-06,0.0,0 STARLINK-6221,1 56484U 23064AN  24060.47257415 -.00000285  00000-0 -16055-4 0  9997,2 56484  70.0009 188.2080 0002799 263.8258  96.2582 14.98336013 45372,6950.174,96.107,573.985,570.094,0.0
56484.0,STARLINK-6221,PAYLOAD,2024-02-29 14:32:46,14.98336205,0.0002847,70.0008,187.8712,265.0602,95.0233,-1.6821e-05,-2.94e-06,0.0,0 STARLINK-6221,1 56484U 23064AN  24060.60609354 -.00000294  00000-0 -16821-4 0  9996,2 56484  70.0008 187.8712 0002847 265.0602  95.0233 14.98336205 45035,6950.174,96.107,574.017,570.06,0.0
56484.0,STARLINK-6221,PAYLOAD,2024-02-29 17:45:02,14.98337337,0.0002842,70.0009,187.5348,265.9429,94.1405,-1.9634e-06,-1.16e-06,0.0,0 STARLINK-6221,1 56484U 23064AN  24060.73961197 -.00000116  00000-0 -19634-5 0  9995,2 56484  70.0009 187.5348 0002842 265.9429  94.1405 14.98337337 45059,6950.17,96.107,574.01,570.06,0.0
